#aV2007  6  3  0  0   .00000000      96 DD+AD WGS84 FIT  NGA
## 1430       .00000000   900.00000000 54254  .0000000000000
+   30     1  2  3  4  5  6  7  8  9 10 11 12 13 14 16 17 18
+         19 20 21 22 23 24 25 26 27 28 29 30 31  0  0  0  0
+          0  0  0  0  0  0  0  0  0  0  0  0  0  0  0  0  0
+          0  0  0  0  0  0  0  0  0  0  0  0  0  0  0  0  0
+          0  0  0  0  0  0  0  0  0  0  0  0  0  0  0  0  0
++         0  0  0  0  0  0  0  0  0  0  0  0  0  0  0  0  0
++         0  0  0  0  0  0  0  0  0  0  0  0  0  0  0  0  0
++         0  0  0  0  0  0  0  0  0  0  0  0  0  0  0  0  0
++         0  0  0  0  0  0  0  0  0  0  0  0  0  0  0  0  0
++         0  0  0  0  0  0  0  0  0  0  0  0  0  0  0  0  0
%c cc cc ccc ccc cccc cccc cccc cccc ccccc ccccc ccccc ccccc
%c cc cc ccc ccc cccc cccc cccc cccc ccccc ccccc ccccc ccccc
%f  0.0000000  0.000000000  0.00000000000  0.000000000000000
%f  0.0000000  0.000000000  0.00000000000  0.000000000000000
%i    0    0    0    0      0      0      0      0         0
%i    0    0    0    0      0      0      0      0         0
/*      NGA, ST. LOUIS,MO.                                  
/*   EPHEMERIS COMPUTED FROM  3 DAYS OF DATA                
/* CCCCCCCCCCCCCCCCCCCCCCCCCCCCCCCCCCCCCCCCCCCCCCCCCCCCCCCCC
/* CCCCCCCCCCCCCCCCCCCCCCCCCCCCCCCCCCCCCCCCCCCCCCCCCCCCCCCCC
*  2007  6  3 18 15   .00000000                                                 
P  1 -21018.194023 -14889.642767   6809.981688    132.010678                    
V  1   8264.368403   2023.203624  30801.004141       .021807                    
P  2  13485.955360  17399.577618 -15271.824420    111.479151                    
V  2    522.570989  19049.474805  22190.374600       .028357                    
P  3 -24351.020004 -10429.532674  -3872.177546     67.034629                    
V  3   5475.803724  -2052.881458 -30225.549364       .055321                    
P  4   7122.116614  24732.114506  -5806.075073     10.329878                    
V  4  -2570.277922   7734.135954  30481.589689      -.005599                    
P  5  21304.705515 -14970.565447   4572.181330      1.115416                    
V  5  -2123.604435   6775.873202  30655.772636       .541418                    
P  6  14017.575243 -10452.965058 -19813.334375    203.939878                    
V  6  23592.356243  10202.514494  11157.606716       .112741                    
P  7  10104.229517 -12692.080799 -20691.624727    273.077043                    
V  7  25449.532136   9533.470327   6408.811248      -.181442                    
P  8   -968.530436  25906.962072  -4668.627465   -109.654720                    
V  8  -3037.757709  -5612.561023 -31700.010210      -.015166                    
P  9  14556.980250  -2747.867894  21448.788731     73.106988                    
V  9   4939.691084  28230.423529    472.135418       .014653                    
P 10  16322.962875   5461.748274 -20429.506395    102.836327                    
V 10 -20204.979670  15689.044714 -11705.352788       .005057                    
P 11 -15540.878182   5819.087231  20621.889850     17.565577                    
V 11  -8210.928448 -25466.773829   1288.232380       .009050                    
P 12  22996.786780 -10256.128146   8459.373534    -46.017916                    
V 12  -6816.324863   8539.410857  29316.821970      -.007954                    
P 13 -11887.590400  10025.556776 -21629.760722    178.266504                    
V 13 -24492.295190 -11685.038724   8121.893615       .033643                    
P 14  -8394.252565 -17090.732028  18630.869301     23.199199                    
V 14  21821.706453   8497.694733  17625.005913       .018075                    
P 16 -11253.554195 -10366.719624 -21635.205178    152.858291                    
V 16  22038.095611 -16707.836872  -3294.480816       .028644                    
P 17   5800.346451  17229.303714  19423.313506     65.891258                    
V 17 -23132.833570  -8438.116920  14275.608010      -.015220                    
P 18  14576.108425 -19407.189435  10509.850389   -248.329406                    
V 18  12527.472420  -5268.919625 -27800.094407       .009566                    
P 19 -24797.258930  -6495.142268   7287.670291     39.677387                    
V 19  -6986.555838  -6396.439484 -29774.399558       .032353                    
P 20 -22784.050460  11631.078724   6975.382686    -25.258364                    
V 20   5247.971374  -7908.711155  29902.513655      -.004105                    
P 21   6595.165002 -22376.963296 -12012.017862     77.574072                    
V 21   4882.481571  15301.923778 -26144.645632       .003709                    
P 22   3519.450078 -18683.545306  18685.181637    185.012500                    
V 22  20171.156207 -12076.893460 -16038.582866       .016268                    
P 23 -20942.270279   3313.072572 -16208.577998    171.063237                    
V 23 -18171.748976  -9223.518498  21504.768641       .028128                    
P 24  12823.675710 -12474.110038 -19518.013865      4.755870                    
V 24   3157.710663  24982.222443 -13462.375300       .028184                    
P 25 -10162.619732  15174.030104 -18981.351433    294.437203                    
V 25  -6865.059966 -23910.978467 -14971.402514       .233723                    
P 26  25037.711956   8885.844406   3565.283738   -230.076656                    
V 26   3980.288865   3316.875654 -31647.912596      -.211320                    
P 27  -4498.898574  22486.352209 -12551.043451    114.514850                    
V 27  -5764.210144 -16263.473166 -25994.706959       .021414                    
P 28  -6841.796451  19523.562250  16796.680517      -.246561                    
V 28 -17939.272516  10750.750675 -20551.694383      -.007365                    
P 29  24699.010149  10313.207179   -103.772907      3.336315                    
V 29   -966.605420   1342.718142 -32111.703719       .003933                    
P 30  19494.501397 -17878.721773  -1838.281041     35.642228                    
V 30   3670.140526   1325.972714  31387.801688       .010566                    
P 31  -7902.988825 -24406.585548  -6536.410031     18.625093                    
V 31   1542.072301  -8859.890098  30377.667615      -.006900                    
EOF
